CCSDS_OMM_VERS = 2.0
CREATION_DATE  = 
ORIGINATOR     = 

OBJECT_NAME    = RSP-03
OBJECT_ID      = 1998-067XL
CENTER_NAME    = EARTH
REF_FRAME      = TEME
TIME_SYSTEM    = UTC
MEAN_ELEMENT_THEORY = SGP/SGP4

EPOCH          = 2026-02-12T15:25:19.971264
MEAN_MOTION    = 16.12100303
ECCENTRICITY   = .0009438
INCLINATION    = 51.6117
RA_OF_ASC_NODE = 174.7279
ARG_OF_PERICENTER = 324.4115
MEAN_ANOMALY   = 35.6270

EPHEMERIS_TYPE = 0
CLASSIFICATION_TYPE = U
NORAD_CAT_ID   = 65732
ELEMENT_SET_NO = 999
REV_AT_EPOCH   = 2296
BSTAR          = .14645E-2
MEAN_MOTION_DOT = .1595936E-1
MEAN_MOTION_DDOT = .19444E-2

CCSDS_OMM_VERS = 2.0
CREATION_DATE  = 
ORIGINATOR     = 

OBJECT_NAME    = YOTSUBA-KULOVER
OBJECT_ID      = 1998-067XN
CENTER_NAME    = EARTH
REF_FRAME      = TEME
TIME_SYSTEM    = UTC
MEAN_ELEMENT_THEORY = SGP/SGP4

EPOCH          = 2026-02-12T14:12:43.259904
MEAN_MOTION    = 15.71964307
ECCENTRICITY   = .00043834
INCLINATION    = 51.6248
RA_OF_ASC_NODE = 186.5540
ARG_OF_PERICENTER = 287.5761
MEAN_ANOMALY   = 72.4758

EPHEMERIS_TYPE = 0
CLASSIFICATION_TYPE = U
NORAD_CAT_ID   = 65941
ELEMENT_SET_NO = 999
REV_AT_EPOCH   = 1954
BSTAR          = .99190093E-3
MEAN_MOTION_DOT = .133871E-2
MEAN_MOTION_DDOT = 0

CCSDS_OMM_VERS = 2.0
CREATION_DATE  = 
ORIGINATOR     = 

OBJECT_NAME    = BOTAN
OBJECT_ID      = 1998-067XP
CENTER_NAME    = EARTH
REF_FRAME      = TEME
TIME_SYSTEM    = UTC
MEAN_ELEMENT_THEORY = SGP/SGP4

EPOCH          = 2026-02-13T06:00:16.976736
MEAN_MOTION    = 15.87930291
ECCENTRICITY   = .00077942
INCLINATION    = 51.6159
RA_OF_ASC_NODE = 178.8870
ARG_OF_PERICENTER = 316.3906
MEAN_ANOMALY   = 43.6481

EPHEMERIS_TYPE = 0
CLASSIFICATION_TYPE = U
NORAD_CAT_ID   = 65942
ELEMENT_SET_NO = 999
REV_AT_EPOCH   = 1970
BSTAR          = .1487093E-2
MEAN_MOTION_DOT = .432754E-2
MEAN_MOTION_DDOT = 0

CCSDS_OMM_VERS = 2.0
CREATION_DATE  = 
ORIGINATOR     = 

OBJECT_NAME    = E-KAGAKU-1
OBJECT_ID      = 1998-067XQ
CENTER_NAME    = EARTH
REF_FRAME      = TEME
TIME_SYSTEM    = UTC
MEAN_ELEMENT_THEORY = SGP/SGP4

EPOCH          = 2026-02-12T18:48:55.106496
MEAN_MOTION    = 15.71895752
ECCENTRICITY   = .00040454
INCLINATION    = 51.6261
RA_OF_ASC_NODE = 185.5955
ARG_OF_PERICENTER = 304.0067
MEAN_ANOMALY   = 56.0546

EPHEMERIS_TYPE = 0
CLASSIFICATION_TYPE = U
NORAD_CAT_ID   = 65943
ELEMENT_SET_NO = 999
REV_AT_EPOCH   = 1957
BSTAR          = .98346817E-3
MEAN_MOTION_DOT = .132308E-2
MEAN_MOTION_DDOT = 0

CCSDS_OMM_VERS = 2.0
CREATION_DATE  = 
ORIGINATOR     = 

OBJECT_NAME    = HRC MONOBLOCK CAMERA
OBJECT_ID      = 1998-067XR
CENTER_NAME    = EARTH
REF_FRAME      = TEME
TIME_SYSTEM    = UTC
MEAN_ELEMENT_THEORY = SGP/SGP4

EPOCH          = 2026-02-12T20:35:57.873408
MEAN_MOTION    = 15.59621334
ECCENTRICITY   = .0001449
INCLINATION    = 51.6269
RA_OF_ASC_NODE = 190.5956
ARG_OF_PERICENTER = 1.9873
MEAN_ANOMALY   = 358.1125

EPHEMERIS_TYPE = 0
CLASSIFICATION_TYPE = U
NORAD_CAT_ID   = 66052
ELEMENT_SET_NO = 999
REV_AT_EPOCH   = 1851
BSTAR          = .5778E-3
MEAN_MOTION_DOT = .46703E-3
MEAN_MOTION_DDOT = 0

CCSDS_OMM_VERS = 2.0
CREATION_DATE  = 
ORIGINATOR     = 

OBJECT_NAME    = HTV-X1
OBJECT_ID      = 2025-241A
CENTER_NAME    = EARTH
REF_FRAME      = TEME
TIME_SYSTEM    = UTC
MEAN_ELEMENT_THEORY = SGP/SGP4

EPOCH          = 2026-02-13T02:49:03.194112
MEAN_MOTION    = 15.48574923
ECCENTRICITY   = .00111144
INCLINATION    = 51.6313
RA_OF_ASC_NODE = 193.8240
ARG_OF_PERICENTER = 93.1734
MEAN_ANOMALY   = 267.0526

EPHEMERIS_TYPE = 0
CLASSIFICATION_TYPE = U
NORAD_CAT_ID   = 66174
ELEMENT_SET_NO = 999
REV_AT_EPOCH   = 51
BSTAR          = .15398026E-3
MEAN_MOTION_DOT = .793E-4
MEAN_MOTION_DDOT = 0

CCSDS_OMM_VERS = 2.0
CREATION_DATE  = 
ORIGINATOR     = 

OBJECT_NAME    = SZ-21 MODULE
OBJECT_ID      = 2025-246C
CENTER_NAME    = EARTH
REF_FRAME      = TEME
TIME_SYSTEM    = UTC
MEAN_ELEMENT_THEORY = SGP/SGP4

EPOCH          = 2026-02-13T05:26:33.249408
MEAN_MOTION    = 15.66676295
ECCENTRICITY   = .00023684
INCLINATION    = 41.4764
RA_OF_ASC_NODE = 353.7289
ARG_OF_PERICENTER = 294.7377
MEAN_ANOMALY   = 65.3218

EPHEMERIS_TYPE = 0
CLASSIFICATION_TYPE = U
NORAD_CAT_ID   = 66515
ELEMENT_SET_NO = 999
REV_AT_EPOCH   = 1423
BSTAR          = .32517536E-3
MEAN_MOTION_DOT = .34969E-3
MEAN_MOTION_DDOT = 0

CCSDS_OMM_VERS = 2.0
CREATION_DATE  = 
ORIGINATOR     = 

OBJECT_NAME    = SHENZHOU-22
OBJECT_ID      = 2025-272A
CENTER_NAME    = EARTH
REF_FRAME      = TEME
TIME_SYSTEM    = UTC
MEAN_ELEMENT_THEORY = SGP/SGP4

EPOCH          = 2026-02-13T06:17:17.586240
MEAN_MOTION    = 15.59565331
ECCENTRICITY   = .00041214
INCLINATION    = 41.4684
RA_OF_ASC_NODE = 356.6736
ARG_OF_PERICENTER = 79.0888
MEAN_ANOMALY   = 281.0414

EPHEMERIS_TYPE = 0
CLASSIFICATION_TYPE = U
NORAD_CAT_ID   = 66645
ELEMENT_SET_NO = 999
REV_AT_EPOCH   = 26764
BSTAR          = .24374204E-3
MEAN_MOTION_DOT = .19658E-3
MEAN_MOTION_DDOT = 0

CCSDS_OMM_VERS = 2.0
CREATION_DATE  = 
ORIGINATOR     = 

OBJECT_NAME    = SOYUZ-MS 28
OBJECT_ID      = 2025-275A
CENTER_NAME    = EARTH
REF_FRAME      = TEME
TIME_SYSTEM    = UTC
MEAN_ELEMENT_THEORY = SGP/SGP4

EPOCH          = 2026-02-13T02:49:03.194112
MEAN_MOTION    = 15.48574923
ECCENTRICITY   = .00111144
INCLINATION    = 51.6313
RA_OF_ASC_NODE = 193.8240
ARG_OF_PERICENTER = 93.1734
MEAN_ANOMALY   = 267.0526

EPHEMERIS_TYPE = 0
CLASSIFICATION_TYPE = U
NORAD_CAT_ID   = 66664
ELEMENT_SET_NO = 999
REV_AT_EPOCH   = 128
BSTAR          = .15398026E-3
MEAN_MOTION_DOT = .793E-4
MEAN_MOTION_DDOT = 0

CCSDS_OMM_VERS = 2.0
CREATION_DATE  = 
ORIGINATOR     = 

OBJECT_NAME    = DUPLEX
OBJECT_ID      = 1998-067XS
CENTER_NAME    = EARTH
REF_FRAME      = TEME
TIME_SYSTEM    = UTC
MEAN_ELEMENT_THEORY = SGP/SGP4

EPOCH          = 2026-02-12T18:49:58.424736
MEAN_MOTION    = 15.54472077
ECCENTRICITY   = .00013914
INCLINATION    = 51.6278
RA_OF_ASC_NODE = 193.8544
ARG_OF_PERICENTER = 78.4261
MEAN_ANOMALY   = 281.6886

EPHEMERIS_TYPE = 0
CLASSIFICATION_TYPE = U
NORAD_CAT_ID   = 66906
ELEMENT_SET_NO = 999
REV_AT_EPOCH   = 1125
BSTAR          = .48138461E-3
MEAN_MOTION_DOT = .31917E-3
MEAN_MOTION_DDOT = 0

CCSDS_OMM_VERS = 2.0
CREATION_DATE  = 
ORIGINATOR     = 

OBJECT_NAME    = ISS OBJECT XT
OBJECT_ID      = 1998-067XT
CENTER_NAME    = EARTH
REF_FRAME      = TEME
TIME_SYSTEM    = UTC
MEAN_ELEMENT_THEORY = SGP/SGP4

EPOCH          = 2026-02-12T14:59:19.206240
MEAN_MOTION    = 15.62523563
ECCENTRICITY   = .0001966
INCLINATION    = 51.6268
RA_OF_ASC_NODE = 192.7837
ARG_OF_PERICENTER = 283.0392
MEAN_ANOMALY   = 77.0382

EPHEMERIS_TYPE = 0
CLASSIFICATION_TYPE = U
NORAD_CAT_ID   = 66907
ELEMENT_SET_NO = 999
REV_AT_EPOCH   = 1125
BSTAR          = .12305E-2
MEAN_MOTION_DOT = .112845E-2
MEAN_MOTION_DDOT = 0

CCSDS_OMM_VERS = 2.0
CREATION_DATE  = 
ORIGINATOR     = 

OBJECT_NAME    = ISS OBJECT XU
OBJECT_ID      = 1998-067XU
CENTER_NAME    = EARTH
REF_FRAME      = TEME
TIME_SYSTEM    = UTC
MEAN_ELEMENT_THEORY = SGP/SGP4

EPOCH          = 2026-02-12T10:22:05.096352
MEAN_MOTION    = 15.62508415
ECCENTRICITY   = .00017664
INCLINATION    = 51.6262
RA_OF_ASC_NODE = 193.7463
ARG_OF_PERICENTER = 286.5464
MEAN_ANOMALY   = 73.5336

EPHEMERIS_TYPE = 0
CLASSIFICATION_TYPE = U
NORAD_CAT_ID   = 66908
ELEMENT_SET_NO = 999
REV_AT_EPOCH   = 1122
BSTAR          = .12130383E-2
MEAN_MOTION_DOT = .11115E-2
MEAN_MOTION_DDOT = 0

